[{"OBJECT_NAME":"STARLINK-2485","OBJECT_ID":"2021-027BC","EPOCH":"2026-03-09T12:05:11.221440","MEAN_MOTION":15.0639994,"ECCENTRICITY":0.00014917,"INCLINATION":53.0549,"RA_OF_ASC_NODE":152.458,"ARG_OF_PERICENTER":70.0066,"MEAN_ANOMALY":290.1084,"EPHEMERIS_TYPE":0,"CLASSIFICATION_TYPE":"U","NORAD_CAT_ID":48142,"ELEMENT_SET_NO":999,"REV_AT_EPOCH":27267,"BSTAR":-3.653178e-6,"MEAN_MOTION_DOT":-3.36e-6,"MEAN_MOTION_DDOT":0},{"OBJECT_NAME":"LEMUR-2-SQUIRRELCOMM","OBJECT_ID":"2024-149DQ","EPOCH":"2026-03-09T21:26:31.466400","MEAN_MOTION":15.05887962,"ECCENTRICITY":0.00061012,"INCLINATION":97.6754,"RA_OF_ASC_NODE":150.1976,"ARG_OF_PERICENTER":42.3481,"MEAN_ANOMALY":317.8216,"EPHEMERIS_TYPE":0,"CLASSIFICATION_TYPE":"U","NORAD_CAT_ID":60578,"ELEMENT_SET_NO":999,"REV_AT_EPOCH":8545,"BSTAR":0.00060830109,"MEAN_MOTION_DOT":8.786e-5,"MEAN_MOTION_DDOT":0}]
